[
    {
        "Altitude(m)": 617710.6920351565,
        "Argument of Periapsis(deg)": 0.0,
        "Eccentricity": 0.0,
        "Inclination(deg)": 60.0,
        "Latitude(deg)": -41.10280192938761,
        "Longitude(deg)": -35.033271087714745,
        "Mean Anomaly(deg)": -49.09089999999996,
        "RAAN(deg)": 95.0,
        "Satellite Name": "Test1 437",
        "Satellite Number": 437,
        "Semi-Major Axis(m)": 6980739.136638005,
        "Time(s)": 0
    },
    {
        "Altitude(m)": 617517.9900367099,
        "Argument of Periapsis(deg)": 0.00010418945913296404,
        "Eccentricity": 0.0,
        "Inclination(deg)": 60.0,
        "Latitude(deg)": -40.63700790269354,
        "Longitude(deg)": -34.53647804812328,
        "Mean Anomaly(deg)": -48.470793854538115,
        "RAAN(deg)": 94.99957995086027,
        "Satellite Name": "Test1 437",
        "Satellite Number": 437,
        "Semi-Major Axis(m)": 6980739.136638005,
        "Time(s)": 10
    }
]